[{"OBJECT_NAME":"STARLINK-35499","OBJECT_ID":"2025-262G","EPOCH":"2026-03-08T23:53:47.501952","MEAN_MOTION":15.27588506,"ECCENTRICITY":9.947e-5,"INCLINATION":42.997,"RA_OF_ASC_NODE":299.8029,"ARG_OF_PERICENTER":262.6611,"MEAN_ANOMALY":97.4128,"EPHEMERIS_TYPE":0,"CLASSIFICATION_TYPE":"U","NORAD_CAT_ID":66462,"ELEMENT_SET_NO":999,"REV_AT_EPOCH":1880,"BSTAR":0.0013358962,"MEAN_MOTION_DOT":0.00036691,"MEAN_MOTION_DDOT":0},{"OBJECT_NAME":"ELECTRON KICK STAGE R\/B","OBJECT_ID":"2022-147B","EPOCH":"2026-03-09T22:28:20.187264","MEAN_MOTION":15.28920172,"ECCENTRICITY":0.00095089,"INCLINATION":97.642,"RA_OF_ASC_NODE":85.1135,"ARG_OF_PERICENTER":110.4683,"MEAN_ANOMALY":249.7578,"EPHEMERIS_TYPE":0,"CLASSIFICATION_TYPE":"U","NORAD_CAT_ID":54228,"ELEMENT_SET_NO":999,"REV_AT_EPOCH":18390,"BSTAR":0.00083201931,"MEAN_MOTION_DOT":0.00023374,"MEAN_MOTION_DDOT":0}]
